#cP2017  2 14  0  0  0.00000000      96 ORBIT IGS14 HLM  IGS
## 1936 172800.00000000   900.00000000 57798 0.0000000000000
+   32   G01G02G03G04G05G06G07G08G09G10G11G12G13G14G15G16G17
+        G18G19G20G21G22G23G24G25G26G27G28G29G30G31G32  0  0
+          0  0  0  0  0  0  0  0  0  0  0  0  0  0  0  0  0
+          0  0  0  0  0  0  0  0  0  0  0  0  0  0  0  0  0
+          0  0  0  0  0  0  0  0  0  0  0  0  0  0  0  0  0
++         2  2  2  0  2  2  2  1  1  2  2  2  2  2  2  3  2
++         2  2  2  2  2  2  2  2  2  2  2  2  2  2  2  0  0
++         0  0  0  0  0  0  0  0  0  0  0  0  0  0  0  0  0
++         0  0  0  0  0  0  0  0  0  0  0  0  0  0  0  0  0
++         0  0  0  0  0  0  0  0  0  0  0  0  0  0  0  0  0
%c G  cc GPS ccc cccc cccc cccc cccc ccccc ccccc ccccc ccccc
%c cc cc ccc ccc cccc cccc cccc cccc ccccc ccccc ccccc ccccc
%f  1.2500000  1.025000000  0.00000000000  0.000000000000000
%f  0.0000000  0.000000000  0.00000000000  0.000000000000000
%i    0    0    0    0      0      0      0      0         0
%i    0    0    0    0      0      0      0      0         0
/* FINAL ORBIT COMBINATION FROM WEIGHTED AVERAGE OF:        
/* cod emr esa gfz grg jpl mit ngs sio                      
/* REFERENCED TO IGS TIME (IGST) AND TO WEIGHTED MEAN POLE: 
/* PCV:IGS14_1930 OL/AL:FES2004  NONE     Y  ORB:CMB CLK:CMB
*  2017  2 14  0 45  0.00000000
PG01  12970.878166 -22141.605534  -6411.256773     49.179466  5  5  8 119       
PG02 -19999.108956  10408.108168 -13269.989335    476.216325 10  9  7 135       
PG03   8232.577342 -13653.317726 -21248.044434   -107.416092  6  6  2  97       
PG04  25204.864374   7908.068156  -4162.418049 999999.999999
PG05 -24590.401870   3146.402010   9719.620905    -60.789578  6  4  5  93       
PG06 -16186.066460  -3034.548585 -20818.596894    312.215884  7  8  7  75       
PG07   1112.995324 -19826.576388  17591.309478    382.866364  7  7  6  96       
PG08   8532.434629 -15819.298264  19589.414571    -49.479869  7  4  3 103       
PG09  -7761.247317 -25295.033864  -2302.868535    303.154376  5  6  6  93       
PG10  22253.014886  10805.581463   9826.603519   -105.836983  5  6  6  90       
PG11  10421.455857 -24146.190300   3293.159398   -669.844107  6  5  3 114       
PG12 -11007.139436  11734.453591 -21230.604940    388.131180  8  7  6  85       
PG13 -13549.532617   7055.220070  21606.231902    -69.673948  5  6  5  60       
PG14  16116.366618  10053.948463 -18367.572534    -58.698499 10  5  8  81       
PG15  -7174.533265  17529.392274  18313.630531   -343.193556  6  8  6  66       
PG16  24870.760944   -285.564842   9762.899785     26.231345 10  9 10 107       
PG17 -14517.123599 -18263.276573 -12485.755384   -191.257611  9  7  8 107       
PG18  13270.513319  15308.094850  17850.409310    598.631526  7  7  7  61       
PG19 -15747.829057 -11214.623884 -18334.221252   -513.189452  9  8  6 113       
PG20 -11140.640810  13843.884555  19588.698202    459.949057  8  5  6  94       
PG21   5305.999885  17261.165838  20211.840036   -521.532418  8  6  4  89       
PG22  15481.101209 -11637.747293 -17969.279127    102.151648 10  6  7 101       
PG23   2324.627120 -22255.006562 -13751.295372   -205.295428 11  8  8  89       
PG24 -14225.247542  22023.628121  -3423.975142    -30.476838  6  3  6 100       
PG25   4547.816191  15402.269225 -21329.575554   -335.516454  9  6  8 114       
PG26  26208.979245   4558.471150   -373.052585   -519.783562  8 10 10  71       
PG27  14946.063970  -2339.228750  21806.955688    209.147542  6  7  5  30       
PG28 -19044.319564 -13769.576911  13010.906795    589.622006  7     9 114       
PG29   4269.440721  25749.139124  -5006.699745    626.890519  5  6  7 115       
PG30 -10221.998124 -11658.989044  21554.487840    160.626473  4  4  5 111       
PG31  17251.642459   1528.472419 -20167.935218    219.194847  7  9  5 112       
PG32  15742.631209  17545.537781 -12263.939962   -319.026424  6  9  6 103       
*  2017  2 14  1  0  0.00000000
PG01  13518.374524 -22428.745830  -3605.782236     49.180348  5  5  8 114       
PG02 -19201.760637   8850.289739 -15369.822051    476.209944  9  9  6 125       
PG03  10583.219104 -13245.221630 -20448.462406   -107.416180  6  6  1  94       
PG04  24581.661273   7969.181829  -6952.865779 999999.999999
PG05 -25521.317596   2768.255121   7127.735873    -60.787667  6  4  5  47       
PG06 -14740.989874  -4981.889775 -21504.395471    312.220324  6  8  5  47       
PG07   2451.479462 -21177.529146  15730.416866    382.862942  7  7  6  89       
PG08   9497.749069 -13736.680660  20695.524867    -49.481466  7  4  2 105       
PG09  -7348.386857 -25010.275621  -5102.548343    303.161140  5  5  6  72       
PG10  20976.289017  10844.889776  12279.590923   -105.833669  5  6  6  90       
PG11  10663.922886 -23459.298567   5950.560537   -669.845925  7  4  2 111       
PG12 -13285.149373  11208.670778 -20158.798543    388.130593  9  7  6  89       
PG13 -14227.863660   4639.686863  21816.988264    -69.675333  4  6  6  50       
PG14  16594.922240  12050.323964 -16701.602084    -58.700050 10  5  7  98       
PG15  -8298.144955  15608.321446  19558.271688   -343.194411  6  8  6  66       
PG16  25785.533339     49.335861   7089.515541     26.232557 10  9 10 101       
PG17 -14792.179730 -19575.454486 -10013.854324   -191.256464  8  7  8 101       
PG18  11240.562584  15262.529709  19252.919955    598.633576  7  7  6  67       
PG19 -16171.091440 -13131.431330 -16557.433220   -513.188263  9  8  6 110       
PG20 -13342.522484  13582.117102  18367.767188    459.950820  7  4  6 101       
PG21   3960.210086  18885.781742  18966.932571   -521.531189  7  6  4  91       
PG22  17465.671521 -11229.747123 -16366.619824    102.141273  9  6  6  92       
PG23   3218.124279 -20735.040169 -15803.502341   -205.296463 10  9  8  57       
PG24 -14610.264409  22017.620454   -595.665529    -30.477620  6  4  6  91       
PG25   2130.746351  15086.055319 -21910.719973   -335.522558  8  6  7 110       
PG26  25973.100963   4781.195429  -3212.444516   -519.783484  8 10  9  73       
PG27  15850.769035    -41.861185  21306.175631    209.152989  6  7  5  62       
PG28 -17538.200857 -13552.850279  15270.567891    589.624932  6  2  9 112       
PG29   3855.504053  25119.011828  -7773.555119    626.888069  5  6  6 109       
PG30  -8562.371086 -13465.713917  21211.723117    160.626459  4  4  5 111       
PG31  15779.308373   3381.431126 -21087.901670    219.192684  6  9  4 107       
PG32  16014.830530  18799.860661  -9812.302135   -319.038882  6  9  6  82       
*  2017  2 14  1 15  0.00000000
PG01  13865.552047 -22479.153275   -737.373809     49.181165  5  4  8 117       
PG02 -18359.836637   7062.864917 -17192.198485    476.204107  9  9  6 128       
PG03  12842.092828 -12968.935282 -19297.122491   -107.416350  5  6  1  84       
PG04  23658.158723   8031.965963  -9626.314483 999999.999999
PG05 -26171.484219   2458.656492   4414.287112    -60.786019  6  4  5  30       
PG06 -13368.800361  -7049.835315 -21819.477450    312.224806  6  7  4 119       
PG07   3587.830179 -22414.611859  13596.818476    382.859240  8  6  6  59       
PG08  10617.273186 -11614.400757  21446.856129    -49.483228  7  4  2  93       
PG09  -6786.070191 -24466.308628  -7814.428056    303.167961  5  5  6  83       
PG10  19438.808396  10930.109739  14522.562869   -105.830355  5  6  6  88       
PG11  10874.720454 -22493.701023   8504.182929   -669.847686  8  3  3 105       
PG12 -15452.244769  10831.405165 -18742.361621    388.130481  9  7  7  77       
PG13 -15034.507300   2260.842512  21647.927392    -69.677027  4  6  6  87       
PG14  17103.075329  13823.467382 -14744.569188    -58.701559  9  5  7 114       
PG15  -9567.123446  13636.656279  20458.781731   -343.195358  6  8  6  81       
PG16  26413.223515    282.254470   4296.564363     26.233299 10 10 10 100       
PG17 -15027.741835 -20598.721124  -7368.412574   -191.255822  7  6  8 104       
PG18   9074.985941  15308.530142  20340.646446    598.635872  7  7  5  65       
PG19 -16623.958911 -14822.127426 -14497.322574   -513.187708  8  8  6  96       
PG20 -15396.937144  13421.714189  16826.987573    459.952230  6  4  6 102       
PG21   2776.536640  20450.050338  17413.279013   -521.529380  7  6  3  74       
PG22  19267.315877 -10922.736652 -14478.419267    102.130483  7  6  6  83       
PG23   4277.925190 -19063.389546 -17574.626879   -205.297245  9  9  7  72       
PG24 -14819.947713  21760.407953   2243.038831    -30.478609  6  4  6 108       
PG25   -346.326770  14900.193000 -22120.198275   -335.528643  8  6  5 102       
PG26  25432.182920   4993.556605  -5996.815528   -519.783626  8 10  9  62       
PG27  16844.278611   2131.307549  20438.593279    209.158340  5  7  5  73       
PG28 -15791.746614 -13383.807889  17277.715273    589.627298  6  2  9 111       
PG29   3291.928544  24229.083300 -10406.847706    626.886013  5  6  6 102       
PG30  -7031.607496 -15307.634260  20503.301719    160.626466  4  3  5 104       
PG31  14356.041940   5380.922923 -21644.753551    219.190783  6  8  3 109       
PG32  16227.244553  19779.769628  -7192.051891   -319.051354  5  8  6  90       
EOF
